# From MPEC 2022-ED3
P/2012 G1 (PANSTARRS),e,12.1709,283.2694,266.1122,4.164933,0.1159557,0.32920416,105.5324,03/29.0/2023,2000,g 15.0,4.0
# From MPC 80898
P/2012 K3 (Gibbs),e,13.1876,125.8204,172.2384,3.628877,0.1425758,0.42236913,188.2458,03/29.0/2023,2000,g 15.0,4.0
# From MPC 88326
P/2012 NJ (La Sagra),e,84.5420,315.6060,338.3871,8.466359,0.0400091,0.84670032,157.5791,03/29.0/2023,2000,g 14.5,4.0
# From MPC 81470
P/2012 O1 (McNaught),e,7.4266,91.9214,238.3395,3.541863,0.1478619,0.59417657,219.8775,03/29.0/2023,2000,g 17.5,4.0
# From MPC 80899
P/2012 O2 (McNaught),e,24.4649,120.6819,183.4769,3.626562,0.1427123,0.53186451,203.1361,03/29.0/2023,2000,g 17.0,4.0
# From MPC 82320
P/2012 T2 (PANSTARRS),e,12.5687,73.7170,310.8387,5.726788,0.0719180,0.16241963,260.0875,03/29.0/2023,2000,g 10.0,4.0
# From MPC 80900
P/2012 T3 (PANSTARRS),e,9.5566,114.3605,195.5451,6.151593,0.0645985,0.61653857,257.0394,03/29.0/2023,2000,g 15.0,4.0
# From MPC 82720
P/2012 U2 (PANSTARRS),e,10.7596,185.3251,228.2718,7.130928,0.0517589,0.50014930,195.8562,03/29.0/2023,2000,g 12.5,4.0
# From MPC 84024
P/2012 US27 (Siding Spring),e,39.3700,49.2088,0.8373,5.164053,0.0839881,0.64831547,311.9399,03/29.0/2023,2000,g 13.5,4.0
# From MPC 82721
P/2012 WA34 (Lemmon-PANSTARRS),e,6.0823,93.5540,356.6291,4.679225,0.0973740,0.34363518,350.0879,03/29.0/2023,2000,g 13.5,4.0
# From MPC 82721
P/2013 AL76 (Catalina),e,144.8779,146.0230,27.0404,6.500404,0.0594694,0.68583730,224.2392,03/29.0/2023,2000,g 16.0,4.0
# From MPC 91612
P/2013 G1 (Kowalski),e,5.4574,221.3027,51.5466,6.898676,0.0543946,0.51094427,184.8482,03/29.0/2023,2000,g 11.0,4.0
# From MPC 84025
P/2013 G4 (PANSTARRS),e,5.9160,339.6304,214.6134,4.437644,0.1054327,0.40913906,29.8143,03/29.0/2023,2000,g 15.0,4.0
# From MPC 91613
P/2013 J2 (McNaught),e,15.5071,289.3294,37.8891,6.223484,0.0634825,0.65718953,221.9674,03/29.0/2023,2000,g 13.0,4.0
# From MPC 86229
P/2013 N3 (PANSTARRS),e,2.1733,17.4813,323.9776,7.396321,0.0489982,0.59284390,162.9496,03/29.0/2023,2000,g 13.0,4.0
# From MPC 85834
P/2013 N5 (PANSTARRS),e,23.4609,187.1551,176.9520,6.797047,0.0556191,0.73247477,197.4713,03/29.0/2023,2000,g 17.0,4.0
# From MPC 85834
P/2013 P1 (PANSTARRS),e,18.7211,160.6080,138.2535,8.583849,0.0391905,0.60429419,144.2984,03/29.0/2023,2000,g 12.0,4.0
# From MPEC 2022-V95
P/2013 R3 (Catalina-PANSTARRS),e,0.8650,341.9693,11.3156,3.031681,0.1867149,0.27561537,293.2645,03/29.0/2023,2000,g 14.0,4.0
# From unp
P/2013 R3-A (Catalina-PANSTARRS),e,0.8641,341.9241,11.3946,3.031435,0.1867376,0.27554606,293.3260,03/29.0/2023,2000,g  9.0,4.0
# From MPEC 2015-M77
P/2013 R3-B (Catalina-PANSTARRS),e,0.8654,341.9801,11.3293,3.031655,0.1867172,0.27559136,293.2592,03/29.0/2023,2000,g  9.0,4.0
# From MPC 85835
P/2013 T1 (PANSTARRS),e,24.3021,10.0801,346.1778,5.856395,0.0695438,0.62425505,244.7256,03/29.0/2023,2000,g 16.5,4.0
# From MPC 86643
P/2013 T2 (Schwartz),e,9.4565,0.8023,345.5890,3.492083,0.1510349,0.50097054,183.3600,03/29.0/2023,2000,g 16.0,4.0
# From MPC 91613
P/2013 W1 (PANSTARRS),e,4.6971,117.8386,1.2228,3.487177,0.1513537,0.59299989,140.7175,03/29.0/2023,2000,g 17.5,4.0
# From MPC101095
P/2013 YG46 (Spacewatch),e,7.8576,48.8357,242.6082,3.273881,0.1663833,0.45464399,13.5927,03/29.0/2023,2000,g 10.0,4.0
# From MPC 89728
P/2014 A2 (Hill),e,24.5496,106.6348,356.1457,5.926870,0.0683071,0.64582443,236.1412,03/29.0/2023,2000,g 15.0,4.0
# From MPC 92981
P/2014 A3 (PANSTARRS),e,13.7174,229.9781,214.1588,4.607422,0.0996591,0.24648433,357.5574,03/29.0/2023,2000,g 12.0,4.0
# From MPC102095
P/2014 C1 (TOTAS),e,2.6933,167.8196,23.9759,3.031105,0.1867681,0.45153563,269.2504,03/29.0/2023,2000,g 15.5,4.0
# From MPEC 2022-WD2
C/2014 F3 (Sheppard-Trujillo),e,6.5332,326.2784,4.6377,14.53385,0.0177882,0.60705445,11.8979,03/29.0/2023,2000,g  6.0,4.0
# From MPC 98560
P/2014 L2 (NEOWISE),e,5.1979,149.3452,182.7250,6.305858,0.0622426,0.64774526,197.4350,03/29.0/2023,2000,g 12.0,4.0
# From MPC 90769
P/2014 L3 (Hill),e,6.2651,115.4980,178.7090,8.179182,0.0421346,0.77247289,134.5910,03/29.0/2023,2000,g 16.0,4.0
# From MPC 91614
P/2014 M4 (PANSTARRS),e,3.3444,263.1764,148.0602,5.867673,0.0693434,0.59575545,208.7732,03/29.0/2023,2000,g 15.0,4.0
# From MPEC 2022-K19
P/2014 MG4 (Spacewatch-PANSTARRS),e,9.3659,311.7220,299.0173,5.013697,0.0877944,0.25885865,313.6089,03/29.0/2023,2000,g  9.5,4.0
# From MPC 98560
P/2014 O3 (PANSTARRS),e,7.7946,87.6380,204.7937,7.578242,0.0472445,0.38413188,154.3965,03/29.0/2023,2000,g 10.5,4.0
# From MPEC 2023-A50
C/2014 OG392 (PANSTARRS),e,9.0330,145.8069,254.4645,12.25604,0.0229709,0.18643402,10.8690,03/29.0/2023,2000,g  6.0,4.0
# From MPC 91616
P/2014 U4 (PANSTARRS),e,6.4289,11.8868,347.8510,3.509303,0.1499246,0.46477183,115.9446,03/29.0/2023,2000,g 18.0,4.0
# From MPEC 2023-E68
C/2014 UN271 (Bernardinelli-Bernstein),h,01/21.2945/2031,95.4303,189.8984,326.2155,1.001439,10.948433,2000,2.5,3.2
# From MPC 95211
P/2014 V1 (PANSTARRS),e,22.5229,166.1976,177.6647,5.479466,0.0768417,0.53434780,229.1438,03/29.0/2023,2000,g 14.0,4.0
# From MPC 93586
P/2014 W1 (PANSTARRS),e,8.8358,246.2205,152.1137,4.468681,0.1043362,0.38957214,332.3420,03/29.0/2023,2000,g 15.5,4.0
# From MPC105542
P/2014 W4 (PANSTARRS),e,15.2835,33.3898,67.5852,6.587186,0.0582981,0.35360266,154.1757,03/29.0/2023,2000,g 11.0,4.0
# From MPC 94281
P/2014 X1 (Elenin),e,26.0521,61.5716,33.8634,6.204099,0.0637802,0.70977899,191.8764,03/29.0/2023,2000,g 15.0,4.0
# From MPC 92275
P/2015 A3 (PANSTARRS),e,172.5428,277.3478,249.4915,7.816105,0.0451044,0.85031446,133.5696,03/29.0/2023,2000,g 20.0,4.0
# From MPC 99270
P/2015 B1 (PANSTARRS),e,18.0573,352.9104,188.8519,9.488657,0.0337207,0.36639845,93.0164,03/29.0/2023,2000,g  8.5,4.0
# From MPC109141
P/2015 B4 (Lemmon-PANSTARRS),e,1.7641,266.0739,227.2212,8.514864,0.0396677,0.56079064,118.0608,03/29.0/2023,2000,g 11.0,4.0
# From MPC101096
P/2015 C1 (TOTAS-Gibbs),e,13.9238,348.7899,178.0819,6.572951,0.0584876,0.56131062,169.4735,03/29.0/2023,2000,g 12.5,4.0
# From MPC109141
P/2015 D5 (Kowalski),e,20.5382,74.0755,39.6400,8.951982,0.0367981,0.49019890,120.8135,03/29.0/2023,2000,g  9.0,4.0
# From MPC 96866
P/2015 D6 (Lemmon-PANSTARRS),e,20.2087,45.8360,124.9897,7.134381,0.0517213,0.36148491,146.5428,03/29.0/2023,2000,g 10.5,4.0
# From MPEC 2021-P47
P/2015 HG16 (PANSTARRS),e,18.9001,57.2703,47.3311,4.790752,0.0939937,0.35188931,306.5010,03/29.0/2023,2000,g 12.5,4.0
# From MPC 95213
P/2015 K5 (PANSTARRS),e,39.9419,134.2276,106.2978,6.726782,0.0564928,0.55174222,161.5347,03/29.0/2023,2000,g 13.5,4.0
# From MPC107684
P/2015 M2 (PANSTARRS),e,3.9691,86.5818,226.0313,7.245206,0.0505392,0.17950283,139.1891,03/29.0/2023,2000,g  8.5,4.0
# From MPEC 2021-P47
C/2015 O1 (PANSTARRS),h,02/20.1875/2018,127.1625,299.8192,89.5107,1.001319,3.719304,2000,6.5,4.0
# From MPC 99819
P/2015 P4 (PANSTARRS),e,8.7180,104.6648,280.6973,6.046693,0.0662868,0.58575992,173.7208,03/29.0/2023,2000,g 14.0,4.0
# From MPEC 2022-K19
P/2015 PD229 (Cameron-ISON),e,2.0245,342.6672,352.7154,7.194733,0.0510719,0.32730633,142.0009,03/29.0/2023,2000,g 11.5,2.0
# From MPC 96867
P/2015 Q2 (Pimentel),e,146.5533,228.5437,244.6589,7.353403,0.0494278,0.75076580,136.3703,03/29.0/2023,2000,g 15.5,4.0
# From MPC 98562
P/2015 R1 (PANSTARRS),e,22.7002,48.3191,300.5958,5.880861,0.0691103,0.63417134,195.4242,03/29.0/2023,2000,g 14.0,4.0
# From MPC 95734
P/2015 R2 (PANSTARRS),e,15.4842,168.5947,149.8627,4.485016,0.1037667,0.45268217,294.8826,03/29.0/2023,2000,g 14.5,4.0
# From MPC 96280
P/2015 T3 (PANSTARRS),e,13.0937,120.5019,178.6330,4.326181,0.1095335,0.50818108,359.9227,12/21.0/2014,2000,g 14.0,4.0
# From MPC102953
P/2015 TO19 (Lemmon-PANSTARRS),e,6.5015,321.6216,89.2130,4.551236,0.1015103,0.35947005,261.5249,03/29.0/2023,2000,g 14.0,4.0
# From MPC110080
P/2015 TP200 (LINEAR),e,8.7800,7.0136,82.4393,7.263962,0.0503435,0.53643244,117.8862,03/29.0/2023,2000,g 11.0,4.0
# From MPC101098
P/2015 W2 (Catalina),e,11.6113,294.1251,117.5841,7.290732,0.0500665,0.63538613,136.7824,03/29.0/2023,2000,g 13.0,4.0
# From MPEC 2022-OB6
C/2015 XY1 (Lemmon),e,148.8518,281.5625,196.1387,14251,0.0000006,0.99944376,0.0000,04/25.3256/2018,2000,g  5.5,4.0
# From MPEC 2022-OB6
P/2015 X3 (PANSTARRS),e,24.4070,77.2666,306.7830,5.002638,0.0880857,0.44010511,245.2451,03/29.0/2023,2000,g 15.0,4.0
# From MPC115881
P/2015 X6 (PANSTARRS),e,4.5651,106.9309,329.7891,2.752068,0.2158814,0.17327574,192.7089,03/29.0/2023,2000,g 16.0,4.0
# From MPC100282
P/2016 A2 (Christensen),e,26.4042,291.6183,141.2875,4.753537,0.0950996,0.27098804,270.6919,03/29.0/2023,2000,g 11.5,4.0
# From MPEC 2022-OB6
P/2016 A3 (PANSTARRS),e,8.5114,187.2150,340.8933,7.878171,0.0445724,0.38606157,96.4266,03/29.0/2023,2000,g 10.0,4.0
# From MPC102098
P/2016 A7 (PANSTARRS),e,16.6041,221.4977,352.5065,5.035421,0.0872269,0.56456107,226.4180,03/29.0/2023,2000,g 16.0,4.0
# From MPC109143
P/2016 BA14 (PANSTARRS),e,18.8967,180.5136,351.9716,3.026875,0.1871597,0.66431892,121.6710,03/29.0/2023,2000,g 21.0,4.0
# From MPEC 2021-P47
P/2016 G1 (PANSTARRS),e,10.9711,204.0171,111.1509,2.583038,0.2374148,0.21060566,175.0515,03/29.0/2023,2000,g 14.0,4.0
# From MPEC 2017-D91
P/2016 J1-A (PANSTARRS),e,14.3296,199.8071,47.1409,3.173492,0.1743403,0.22771552,69.8780,03/29.0/2023,2000,g 16.5,4.0
# From MPEC 2017-A77
P/2016 J1-B (PANSTARRS),e,14.3324,199.8119,47.0325,3.173130,0.1743702,0.22756586,70.0275,03/29.0/2023,2000,g 17.0,4.0
# From MPEC 2022-ED3
C/2016 M1 (PANSTARRS),e,90.8528,92.2669,209.9329,31247,0.0000002,0.99992914,0.0000,08/10.4472/2018,2000,g  5.0,4.0
# From MPEC 2021-P47
C/2016 N6 (PANSTARRS),e,105.8657,298.8990,162.5774,955.4316,0.0000334,0.99721603,0.0000,07/17.3800/2018,2000,g  7.0,4.0
# From MPC102099
P/2016 P1 (PANSTARRS),e,24.3947,319.4784,270.6091,3.200717,0.1721207,0.28925665,112.8233,03/29.0/2023,2000,g 15.0,4.0
# From MPEC 2023-D72
C/2016 Q2 (PANSTARRS),h,05/12.3919/2021,109.3790,322.3140,84.5575,1.003052,7.081810,2000,6.0,4.0
# From MPEC 2021-N06
